start=new Date('2023-02-26T00:00:00.000Z').valueOf();
sats=[{"PERIAPSIS":"538.836","REF_FRAME":"TEME","TLE_LINE2":"2 52999  53.2191  29.6715 0001297 100.9723 259.1415 15.08843810 35528","RCS_SIZE":"LARGE","GP_ID":"226857841","LAUNCH_DATE":"2022-07-07","CENTER_NAME":"EARTH","OBJECT_ID":"2022-076P","CLASSIFICATION_TYPE":"U","FILE":"3837605","EPOCH":"2023-02-25T08:17:56.090112","COUNTRY_CODE":"US","TLE_LINE1":"1 52999U 22076P   23056.34578808  .00005512  00000-0  36410-3 0  9990","APOAPSIS":"540.631","ECCENTRICITY":"0.00012970","EPHEMERIS_TYPE":"0","RA_OF_ASC_NODE":"29.6715","OBJECT_TYPE":"PAYLOAD","BSTAR":"0.00036410000000","OBJECT_NAME":"STARLINK-4217","ARG_OF_PERICENTER":"100.9723","MEAN_MOTION_DDOT":"0.0000000000000","SITE":"AFETR","PERIOD":"95.437","MEAN_ANOMALY":"259.1415","REV_AT_EPOCH":"3552","INCLINATION":"53.2191","DECAY_DATE":null,"TIME_SYSTEM":"UTC","MEAN_ELEMENT_THEORY":"SGP4","MEAN_MOTION_DOT":"0.00005512","MEAN_MOTION":"15.08843810","SEMIMAJOR_AXIS":"6917.869","NORAD_CAT_ID":"52999","ELEMENT_SET_NO":"999"},{"CLASSIFICATION_TYPE":"U","FILE":"3837605","TLE_LINE1":"1 53000U 22076Q   23056.36051321  .00019005  00000-0  12091-2 0  9992","COUNTRY_CODE":"US","EPOCH":"2023-02-25T08:39:08.341344","TLE_LINE2":"2 53000  53.2171  29.6032 0001123  83.1422 276.9697 15.08835473 35523","REF_FRAME":"TEME","PERIAPSIS":"538.982","CENTER_NAME":"EARTH","OBJECT_ID":"2022-076Q","RCS_SIZE":"LARGE","LAUNCH_DATE":"2022-07-07","GP_ID":"226858091","REV_AT_EPOCH":"3552","INCLINATION":"53.2171","PERIOD":"95.438","MEAN_ANOMALY":"276.9697","MEAN_MOTION":"15.08835473","MEAN_MOTION_DOT":"0.00019005","ELEMENT_SET_NO":"999","SEMIMAJOR_AXIS":"6917.894","NORAD_CAT_ID":"53000","DECAY_DATE":null,"TIME_SYSTEM":"UTC","MEAN_ELEMENT_THEORY":"SGP4","APOAPSIS":"540.536","OBJECT_NAME":"STARLINK-4194","MEAN_MOTION_DDOT":"0.0000000000000","SITE":"AFETR","ARG_OF_PERICENTER":"83.1422","EPHEMERIS_TYPE":"0","ECCENTRICITY":"0.00011230","BSTAR":"0.00120910000000","RA_OF_ASC_NODE":"29.6032","OBJECT_TYPE":"PAYLOAD"},{"REV_AT_EPOCH":"3550","INCLINATION":"53.2185","PERIOD":"95.438","MEAN_ANOMALY":"260.1174","MEAN_MOTION_DOT":"0.00000461","MEAN_MOTION":"15.08836464","NORAD_CAT_ID":"53001","SEMIMAJOR_AXIS":"6917.891","ELEMENT_SET_NO":"999","TIME_SYSTEM":"UTC","DECAY_DATE":null,"MEAN_ELEMENT_THEORY":"SGP4","APOAPSIS":"540.507","OBJECT_NAME":"STARLINK-4190","ARG_OF_PERICENTER":"99.9940","SITE":"AFETR","MEAN_MOTION_DDOT":"0.0000000000000","ECCENTRICITY":"0.00010860","EPHEMERIS_TYPE":"0","RA_OF_ASC_NODE":"30.2811","OBJECT_TYPE":"PAYLOAD","BSTAR":"0.00004703500000","CLASSIFICATION_TYPE":"U","FILE":"3837605","TLE_LINE1":"1 53001U 22076R   23056.20963099  .00000461  00000-0  47035-4 0  9994","EPOCH":"2023-02-25T05:01:52.117536","COUNTRY_CODE":"US","TLE_LINE2":"2 53001  53.2185  30.2811 0001086  99.9940 260.1174 15.08836464 35504","PERIAPSIS":"539.005","REF_FRAME":"TEME","CENTER_NAME":"EARTH","OBJECT_ID":"2022-076R","RCS_SIZE":"LARGE","GP_ID":"226858329","LAUNCH_DATE":"2022-07-07"},{"ECCENTRICITY":"0.00008880","EPHEMERIS_TYPE":"0","BSTAR":"0.00010769000000","OBJECT_TYPE":"PAYLOAD","RA_OF_ASC_NODE":"26.9490","OBJECT_NAME":"STARLINK-4121","SITE":"AFETR","MEAN_MOTION_DDOT":"0.0000000000000","ARG_OF_PERICENTER":"90.0527","APOAPSIS":"540.356","TIME_SYSTEM":"UTC","DECAY_DATE":null,"MEAN_ELEMENT_THEORY":"SGP4","MEAN_MOTION":"15.08841093","MEAN_MOTION_DOT":"0.00001427","ELEMENT_SET_NO":"999","SEMIMAJOR_AXIS":"6917.877","NORAD_CAT_ID":"53002","PERIOD":"95.437","MEAN_ANOMALY":"270.0567","REV_AT_EPOCH":"3561","INCLINATION":"53.2164","RCS_SIZE":"LARGE","LAUNCH_DATE":"2022-07-07","GP_ID":"226915167","CENTER_NAME":"EARTH","OBJECT_ID":"2022-076S","REF_FRAME":"TEME","PERIAPSIS":"539.128","TLE_LINE2":"2 53002  53.2164  26.9490 0000888  90.0527 270.0567 15.08841093 35611","COUNTRY_CODE":"US","EPOCH":"2023-02-25T22:52:18.520032","TLE_LINE1":"1 53002U 22076S   23056.95299213  .00001427  00000-0  10769-3 0  9993","FILE":"3839003","CLASSIFICATION_TYPE":"U"},{"TLE_LINE1":"1 53003U 22076T   23056.20225776  .00016134  00000-0  10288-2 0  9991","EPOCH":"2023-02-25T04:51:15.070464","COUNTRY_CODE":"US","CLASSIFICATION_TYPE":"U","FILE":"3837605","CENTER_NAME":"EARTH","OBJECT_ID":"2022-076T","RCS_SIZE":"MEDIUM","GP_ID":"226857341","LAUNCH_DATE":"2022-07-07","TLE_LINE2":"2 53003  53.2181  30.3178 0001681 101.9711 258.1470 15.08864402 35509","PERIAPSIS":"538.508","REF_FRAME":"TEME","MEAN_MOTION_DOT":"0.00016134","MEAN_MOTION":"15.08864402","SEMIMAJOR_AXIS":"6917.806","NORAD_CAT_ID":"53003","ELEMENT_SET_NO":"999","DECAY_DATE":null,"TIME_SYSTEM":"UTC","MEAN_ELEMENT_THEORY":"SGP4","REV_AT_EPOCH":"3550","INCLINATION":"53.2181","PERIOD":"95.436","MEAN_ANOMALY":"258.1470","OBJECT_NAME":"STARLINK-4255","ARG_OF_PERICENTER":"101.9711","MEAN_MOTION_DDOT":"0.0000000000000","SITE":"AFETR","ECCENTRICITY":"0.00016810","EPHEMERIS_TYPE":"0","RA_OF_ASC_NODE":"30.3178","OBJECT_TYPE":"PAYLOAD","BSTAR":"0.00102880000000","APOAPSIS":"540.834"},{"RCS_SIZE":"LARGE","GP_ID":"226881396","LAUNCH_DATE":"2022-07-07","CENTER_NAME":"EARTH","OBJECT_ID":"2022-076U","PERIAPSIS":"538.849","REF_FRAME":"TEME","TLE_LINE2":"2 53004  53.2200  30.2456 0001276 124.5872 235.5241 15.08844460 35977","EPOCH":"2023-02-25T05:12:28.028448","COUNTRY_CODE":"US","TLE_LINE1":"1 53004U 22076U   23056.21699107  .00021371  00000-0  13566-2 0  9997","FILE":"3838505","CLASSIFICATION_TYPE":"U","ECCENTRICITY":"0.00012760","EPHEMERIS_TYPE":"0","RA_OF_ASC_NODE":"30.2456","OBJECT_TYPE":"PAYLOAD","BSTAR":"0.00135660000000","OBJECT_NAME":"STARLINK-4253","ARG_OF_PERICENTER":"124.5872","MEAN_MOTION_DDOT":"0.0000000000000","SITE":"AFETR","APOAPSIS":"540.614","DECAY_DATE":null,"TIME_SYSTEM":"UTC","MEAN_ELEMENT_THEORY":"SGP4","MEAN_MOTION_DOT":"0.00021371","MEAN_MOTION":"15.08844460","SEMIMAJOR_AXIS":"6917.867","NORAD_CAT_ID":"53004","ELEMENT_SET_NO":"999","PERIOD":"95.437","MEAN_ANOMALY":"235.5241","REV_AT_EPOCH":"3597","INCLINATION":"53.2200"},{"FILE":"3837605","CLASSIFICATION_TYPE":"U","TLE_LINE1":"1 53005U 22076V   23056.19859126  .00014845  00000-0  94885-3 0  9996","EPOCH":"2023-02-25T04:45:58.284864","COUNTRY_CODE":"US","TLE_LINE2":"2 53005  53.2175  30.3339 0001630  94.7168 265.4010 15.08840618 35506","PERIAPSIS":"538.616","REF_FRAME":"TEME","CENTER_NAME":"EARTH","OBJECT_ID":"2022-076V","RCS_SIZE":"LARGE","GP_ID":"226858829","LAUNCH_DATE":"2022-07-07","REV_AT_EPOCH":"3550","INCLINATION":"53.2175","PERIOD":"95.438","MEAN_ANOMALY":"265.4010","MEAN_MOTION_DOT":"0.00014845","MEAN_MOTION":"15.08840618","NORAD_CAT_ID":"53005","SEMIMAJOR_AXIS":"6917.878","ELEMENT_SET_NO":"999","DECAY_DATE":null,"TIME_SYSTEM":"UTC","MEAN_ELEMENT_THEORY":"SGP4","APOAPSIS":"540.871","OBJECT_NAME":"STARLINK-4288","ARG_OF_PERICENTER":"94.7168","MEAN_MOTION_DDOT":"0.0000000000000","SITE":"AFETR","ECCENTRICITY":"0.00016300","EPHEMERIS_TYPE":"0","RA_OF_ASC_NODE":"30.3339","OBJECT_TYPE":"PAYLOAD","BSTAR":"0.00094885000000"},{"TLE_LINE1":"1 53006U 22076W   23056.13971108  .00016365  00000-0  10440-2 0  9999","COUNTRY_CODE":"US","EPOCH":"2023-02-25T03:21:11.037312","CLASSIFICATION_TYPE":"U","FILE":"3837605","CENTER_NAME":"EARTH","OBJECT_ID":"2022-076W","RCS_SIZE":"LARGE","LAUNCH_DATE":"2022-07-07","GP_ID":"226857091","TLE_LINE2":"2 53006  53.2179  30.5990 0001535 107.0816 253.0344 15.08838109 35491","REF_FRAME":"TEME","PERIAPSIS":"538.689","MEAN_MOTION":"15.08838109","MEAN_MOTION_DOT":"0.00016365","ELEMENT_SET_NO":"999","NORAD_CAT_ID":"53006","SEMIMAJOR_AXIS":"6917.886","DECAY_DATE":null,"TIME_SYSTEM":"UTC","MEAN_ELEMENT_THEORY":"SGP4","REV_AT_EPOCH":"3549","INCLINATION":"53.2179","PERIOD":"95.438","MEAN_ANOMALY":"253.0344","OBJECT_NAME":"STARLINK-4290","MEAN_MOTION_DDOT":"0.0000000000000","SITE":"AFETR","ARG_OF_PERICENTER":"107.0816","EPHEMERIS_TYPE":"0","ECCENTRICITY":"0.00015350","BSTAR":"0.00104400000000","OBJECT_TYPE":"PAYLOAD","RA_OF_ASC_NODE":"30.5990","APOAPSIS":"540.813"},{"APOAPSIS":"540.568","MEAN_MOTION_DDOT":"0.0000000000000","SITE":"AFETR","ARG_OF_PERICENTER":"110.4379","OBJECT_NAME":"STARLINK-4215","BSTAR":"0.00041730000000","OBJECT_TYPE":"PAYLOAD","RA_OF_ASC_NODE":"28.2846","EPHEMERIS_TYPE":"0","ECCENTRICITY":"0.00011820","INCLINATION":"53.2181","REV_AT_EPOCH":"3557","MEAN_ANOMALY":"249.6740","PERIOD":"95.438","ELEMENT_SET_NO":"999","SEMIMAJOR_AXIS":"6917.885","NORAD_CAT_ID":"53007","MEAN_MOTION":"15.08838396","MEAN_MOTION_DOT":"0.00006359","MEAN_ELEMENT_THEORY":"SGP4","DECAY_DATE":null,"TIME_SYSTEM":"UTC","TLE_LINE2":"2 53007  53.2181  28.2846 0001182 110.4379 249.6740 15.08838396 35577","REF_FRAME":"TEME","PERIAPSIS":"538.933","OBJECT_ID":"2022-076X","CENTER_NAME":"EARTH","LAUNCH_DATE":"2022-07-07","GP_ID":"226913422","RCS_SIZE":"LARGE","FILE":"3839003","CLASSIFICATION_TYPE":"U","TLE_LINE1":"1 53007U 22076X   23056.65491184  .00006359  00000-0  41730-3 0  9997","COUNTRY_CODE":"US","EPOCH":"2023-02-25T15:43:04.382976"},{"MEAN_ANOMALY":"262.3516","PERIOD":"95.437","INCLINATION":"53.2182","REV_AT_EPOCH":"3550","MEAN_ELEMENT_THEORY":"SGP4","DECAY_DATE":null,"TIME_SYSTEM":"UTC","ELEMENT_SET_NO":"999","SEMIMAJOR_AXIS":"6917.841","NORAD_CAT_ID":"53008","MEAN_MOTION":"15.08852823","MEAN_MOTION_DOT":"0.00009426","APOAPSIS":"540.790","BSTAR":"0.00060930000000","RA_OF_ASC_NODE":"30.3437","OBJECT_TYPE":"PAYLOAD","ECCENTRICITY":"0.00015660","EPHEMERIS_TYPE":"0","SITE":"AFETR","MEAN_MOTION_DDOT":"0.0000000000000","ARG_OF_PERICENTER":"97.7654","OBJECT_NAME":"STARLINK-4275","FILE":"3837605","CLASSIFICATION_TYPE":"U","COUNTRY_CODE":"US","EPOCH":"2023-02-25T04:42:02.674656","TLE_LINE1":"1 53008U 22076Y   23056.19586429  .00009426  00000-0  60930-3 0  9995","REF_FRAME":"TEME","PERIAPSIS":"538.623","TLE_LINE2":"2 53008  53.2182  30.3437 0001566  97.7654 262.3516 15.08852823 35505","LAUNCH_DATE":"2022-07-07","GP_ID":"226858092","RCS_SIZE":"LARGE","OBJECT_ID":"2022-076Y","CENTER_NAME":"EARTH"}];
